     2              NAVIGATION DATA                         RINEX VERSION / TYPE
CCRINEXN V1.6.0 UX  CDDIS               22-MAR-16 23:39     PGM / RUN BY / DATE 
IGS BROADCAST EPHEMERIS FILE                                COMMENT             
    0.1676D-07  0.7451D-08 -0.1192D-06 -0.5960D-07          ION ALPHA           
    0.1106D+06  0.1638D+05 -0.2621D+06 -0.6554D+05          ION BETA            
   -0.279396772385D-08-0.621724893790D-14   503808     1889 DELTA-UTC: A0,A1,T,W
    17                                                      LEAP SECONDS        
                                                            END OF HEADER       
10 16  3 22 14  0  0.0 0.214297324419D-04-0.920863385545D-11 0.000000000000D+00
    0.740000000000D+02 0.318750000000D+01 0.434875246924D-08-0.153256709261D+01
    0.651925802231D-07 0.128805020358D-02 0.121984630823D-04 0.515369105339D+04
    0.223200000000D+06 0.167638063431D-07 0.590843792730D-02 0.745058059692D-08
    0.960074489516D+00 0.143218750000D+03-0.281085203806D+01-0.785282683324D-08
    0.113219003617D-09 0.100000000000D+01 0.188900000000D+04 0.000000000000D+00
    0.200000000000D+01 0.000000000000D+00 0.232830643654D-08 0.740000000000D+02
    0.217290000000D+06 0.000000000000D+00 0.000000000000D+00 0.000000000000D+00
11 16  3 22 14  0  0.0-0.637706369162D-03-0.159161572810D-11 0.000000000000D+00
    0.450000000000D+02-0.341875000000D+02 0.657563104428D-08 0.109518834082D+00
   -0.187940895557D-05 0.162448699120D-01 0.252015888691D-05 0.515365033722D+04
    0.223200000000D+06-0.277534127235D-06-0.140357287048D+01 0.186264514923D-08
    0.895624884520D+00 0.297531250000D+03 0.150881257994D+01-0.960039989519D-08
   -0.126790995640D-09 0.100000000000D+01 0.188900000000D+04 0.000000000000D+00
    0.200000000000D+01 0.000000000000D+00-0.121071934700D-07 0.450000000000D+02
    0.219348000000D+06 0.400000000000D+01 0.000000000000D+00 0.000000000000D+00
12 16  3 22 14  0  0.0 0.373419374228D-03 0.147792889038D-11 0.000000000000D+00
    0.270000000000D+02 0.192187500000D+02 0.356121976353D-08-0.466951591025D+00
    0.979751348495D-06 0.600172148552D-02 0.119879841805D-04 0.515376963806D+04
    0.223200000000D+06 0.596046447754D-07-0.308059419962D+01 0.875443220139D-07
    0.990677920889D+00 0.164500000000D+03 0.692951871495D+00-0.760067386807D-08
    0.500020814684D-11 0.100000000000D+01 0.188900000000D+04 0.000000000000D+00
    0.200000000000D+01 0.000000000000D+00-0.121071934700D-07 0.270000000000D+02
    0.216030000000D+06 0.000000000000D+00 0.000000000000D+00 0.000000000000D+00
13 16  3 22 14  0  0.0-0.538071617484D-05-0.284217094304D-11 0.000000000000D+00
    0.120000000000D+02 0.541875000000D+02 0.476448436260D-08 0.939966191902D+00
    0.271201133728D-05 0.460216740612D-02 0.461563467979D-05 0.515367614365D+04
    0.223200000000D+06-0.521540641785D-07 0.116957298530D+01-0.819563865662D-07
    0.971675457680D+00 0.295906250000D+03 0.198512688763D+01-0.828570190237D-08
    0.305369868281D-09 0.100000000000D+01 0.188900000000D+04 0.000000000000D+00
    0.200000000000D+01 0.000000000000D+00-0.111758708954D-07 0.120000000000D+02
    0.216030000000D+06 0.000000000000D+00 0.000000000000D+00 0.000000000000D+00
14 16  3 22 14  0  0.0-0.400748103857D-05-0.227373675443D-11 0.000000000000D+00
    0.102000000000D+03 0.553437500000D+02 0.480734296815D-08 0.275710758919D+01
    0.283308327198D-05 0.840881583281D-02 0.427849590778D-05 0.515373601532D+04
    0.223200000000D+06 0.596046447754D-07 0.113293287660D+01-0.124797224999D-06
    0.964196229020D+00 0.295031250000D+03-0.195261019055D+01-0.818962675453D-08
    0.244295889074D-09 0.100000000000D+01 0.188900000000D+04 0.000000000000D+00
    0.280000000000D+01 0.000000000000D+00-0.931322574616D-08 0.102000000000D+03
    0.216030000000D+06 0.000000000000D+00 0.000000000000D+00 0.000000000000D+00
15 16  3 22 14  0  0.0-0.302922911942D-03-0.181898940355D-11 0.000000000000D+00
    0.780000000000D+02 0.694375000000D+02 0.561344792871D-08 0.195885314811D+01
    0.364892184734D-05 0.809328944888D-02 0.560656189919D-05 0.515355910873D+04
    0.223200000000D+06-0.236555933952D-06 0.998835747507D+00 0.113621354103D-06
    0.931124003429D+00 0.258750000000D+03 0.478229201629D+00-0.867428973095D-08
    0.365729529994D-09 0.100000000000D+01 0.188900000000D+04 0.000000000000D+00
    0.200000000000D+01 0.000000000000D+00-0.107102096081D-07 0.780000000000D+02
    0.216030000000D+06 0.000000000000D+00 0.000000000000D+00 0.000000000000D+00
16 16  3 22 14  0  0.0-0.302684493363D-04 0.295585778076D-11 0.000000000000D+00
    0.690000000000D+02 0.328125000000D+02 0.336835459120D-08-0.251799688998D+01
    0.159628689289D-05 0.869552418590D-02 0.132955610752D-04 0.515373555756D+04
    0.223200000000D+06-0.298023223877D-07-0.306184705219D+01-0.521540641785D-07
    0.991194202234D+00 0.140375000000D+03 0.344733677119D+00-0.737745015755D-08
    0.138220043134D-09 0.100000000000D+01 0.188900000000D+04 0.000000000000D+00
    0.200000000000D+01 0.000000000000D+00-0.102445483208D-07 0.690000000000D+02
    0.216018000000D+06 0.400000000000D+01 0.000000000000D+00 0.000000000000D+00
17 16  3 22 14  0  0.0-0.202346127480D-03-0.454747350886D-12 0.000000000000D+00
    0.120000000000D+02 0.678750000000D+02 0.428624996809D-08 0.282513656705D+01
    0.347010791302D-05 0.109882244142D-01 0.466778874397D-05 0.515365604591D+04
    0.223200000000D+06 0.447034835815D-07-0.203982002132D+01-0.121071934700D-06
    0.975434737286D+00 0.294687500000D+03-0.193528548372D+01-0.794854537453D-08
    0.450733060556D-09 0.100000000000D+01 0.188900000000D+04 0.000000000000D+00
    0.200000000000D+01 0.000000000000D+00-0.107102096081D-07 0.120000000000D+02
    0.216000000000D+06 0.400000000000D+01 0.000000000000D+00 0.000000000000D+00
18 16  3 22 14  0  0.0 0.496407039463D-03 0.409272615798D-11 0.000000000000D+00
    0.660000000000D+02 0.803125000000D+01 0.507485431456D-08-0.189736193651D+01
    0.430271029472D-06 0.168589389650D-01 0.115893781185D-04 0.515367491150D+04
    0.223200000000D+06 0.303611159325D-06-0.206880725298D-01 0.726431608200D-07
    0.925546783321D+00 0.131468750000D+03-0.190306885455D+01-0.799068988755D-08
    0.157863722095D-09 0.100000000000D+01 0.188900000000D+04 0.000000000000D+00
    0.200000000000D+01 0.000000000000D+00-0.111758708954D-07 0.660000000000D+02
    0.216030000000D+06 0.000000000000D+00 0.000000000000D+00 0.000000000000D+00
19 16  3 22 14  0  0.0-0.525404699147D-03-0.113686837722D-12 0.000000000000D+00
    0.410000000000D+02 0.592500000000D+02 0.455840416155D-08-0.323426080726D+00
    0.339001417160D-05 0.107374240179D-01 0.460818409920D-05 0.515360178757D+04
    0.223200000000D+06 0.353902578354D-07-0.199085283970D+01 0.143423676491D-06
    0.972489649126D+00 0.298031250000D+03 0.727878575430D+00-0.839963559282D-08
    0.456090426568D-09 0.100000000000D+01 0.188900000000D+04 0.000000000000D+00
    0.200000000000D+01 0.000000000000D+00-0.153668224812D-07 0.410000000000D+02
    0.216000000000D+06 0.400000000000D+01 0.000000000000D+00 0.000000000000D+00
20 16  3 22 14  0  0.0 0.400985125452D-03 0.250111042988D-11 0.000000000000D+00
    0.550000000000D+02-0.176250000000D+02 0.509842656982D-08 0.206178831833D+01
   -0.955536961556D-06 0.475343200378D-02 0.118333846331D-04 0.515371763420D+04
    0.223200000000D+06 0.186264514923D-07-0.725751596410D-01-0.102445483208D-06
    0.926790148118D+00 0.133812500000D+03 0.134637326512D+01-0.815641154617D-08
    0.157149397662D-10 0.100000000000D+01 0.188900000000D+04 0.000000000000D+00
    0.200000000000D+01 0.000000000000D+00-0.838190317154D-08 0.550000000000D+02
    0.216030000000D+06 0.000000000000D+00 0.000000000000D+00 0.000000000000D+00
21 16  3 22 14  0  0.0-0.515947118401D-03-0.159161572810D-11 0.000000000000D+00
    0.830000000000D+02-0.643125000000D+02 0.544058398333D-08-0.103029706622D+01
   -0.282377004623D-05 0.233135526068D-01 0.538863241673D-05 0.515364388657D+04
    0.223200000000D+06-0.173225998878D-06-0.106273164532D+01 0.517815351486D-06
    0.935708569252D+00 0.264593750000D+03-0.181251601605D+01-0.886215456575D-08
   -0.256439258717D-09 0.100000000000D+01 0.188900000000D+04 0.000000000000D+00
    0.200000000000D+01 0.000000000000D+00-0.116415321827D-07 0.830000000000D+02
    0.216030000000D+06 0.000000000000D+00 0.000000000000D+00 0.000000000000D+00
22 16  3 22 14  0  0.0 0.376881565899D-03-0.682121026330D-11 0.000000000000D+00
    0.740000000000D+02-0.240625000000D+01 0.511342728049D-08 0.279950692256D+01
   -0.229105353355D-06 0.778323772829D-02 0.130012631416D-04 0.515507571030D+04
    0.223200000000D+06 0.521540641785D-07-0.199454923870D-01-0.968575477600D-07
    0.923410293871D+00 0.110125000000D+03-0.200620846465D+01-0.809998025383D-08
    0.650027076237D-10 0.100000000000D+01 0.188900000000D+04 0.000000000000D+00
    0.200000000000D+01 0.000000000000D+00-0.176951289177D-07 0.740000000000D+02
    0.218448000000D+06 0.400000000000D+01 0.000000000000D+00 0.000000000000D+00
23 16  3 22 14  0  0.0-0.165860168636D-03-0.181898940355D-11 0.000000000000D+00
    0.540000000000D+02 0.687187500000D+02 0.537772400379D-08 0.153970619136D+01
    0.372156500816D-05 0.106098214164D-01 0.537559390068D-05 0.515370546913D+04
    0.223200000000D+06-0.109896063805D-06 0.105565453920D+01 0.169500708580D-06
    0.946272283147D+00 0.272937500000D+03-0.260234201262D+01-0.868464746471D-08
    0.308584282345D-09 0.100000000000D+01 0.188900000000D+04 0.000000000000D+00
    0.200000000000D+01 0.000000000000D+00-0.200234353542D-07 0.540000000000D+02
    0.216000000000D+06 0.000000000000D+00 0.000000000000D+00 0.000000000000D+00
